from main_pases import get_az_sequence


TLE = ['1 46276U 20061E   23016.73554066  .00012477  00000+0  57735-3 0  9992', '2 46276  97.3686  87.6539 0002463 114.7509 245.3983 15.20268140131251']
lon_GS = -3.790833
lat_GS = 40.39583
h = 745  # m
min_el = 15  # deg
GS = [lon_GS, lat_GS, h, min_el]

TLE_list = [['1 52780U 22002A   23016.73554066  .00030168  00000+0  14049-4 0  9995', '2 52780  97.4682  88.7588 0010660  26.0355 334.0896 15.28087056 45451'], ['1 52781U 22002A   23016.73554066  .00030168  00000+0  14049-4 0  9996', '2 52781  97.4687  88.6583 0011040  28.3519 331.7713 15.28362215 45456']]

for TLE in TLE_list:
    print(TLE)
    df = get_az_sequence(TLE, GS, "2022-01-16 12:00:00.000", 1)

    print(df)